[{"OBJECT_NAME":"ONEWEB-0215","OBJECT_ID":"2021-045AK","EPOCH":"2026-03-17T07:16:49.011456","MEAN_MOTION":13.15549178,"ECCENTRICITY":0.00022642,"INCLINATION":87.8939,"RA_OF_ASC_NODE":277.5178,"ARG_OF_PERICENTER":103.8486,"MEAN_ANOMALY":256.2896,"EPHEMERIS_TYPE":0,"CLASSIFICATION_TYPE":"U","NORAD_CAT_ID":48800,"ELEMENT_SET_NO":999,"REV_AT_EPOCH":23221,"BSTAR":0.00057794461,"MEAN_MOTION_DOT":2.3e-6,"MEAN_MOTION_DDOT":0},{"OBJECT_NAME":"ONEWEB-0216","OBJECT_ID":"2021-045AL","EPOCH":"2026-03-17T02:01:54.071904","MEAN_MOTION":13.15552517,"ECCENTRICITY":0.00015287,"INCLINATION":87.8931,"RA_OF_ASC_NODE":277.5803,"ARG_OF_PERICENTER":92.0841,"MEAN_ANOMALY":268.0465,"EPHEMERIS_TYPE":0,"CLASSIFICATION_TYPE":"U","NORAD_CAT_ID":48801,"ELEMENT_SET_NO":999,"REV_AT_EPOCH":23219,"BSTAR":0.00050565952,"MEAN_MOTION_DOT":2.03e-6,"MEAN_MOTION_DDOT":0},{"OBJECT_NAME":"ONEWEB-0239","OBJECT_ID":"2021-045AM","EPOCH":"2026-03-17T02:08:47.006016","MEAN_MOTION":13.15548609,"ECCENTRICITY":0.00024831,"INCLINATION":87.893,"RA_OF_ASC_NODE":277.5933,"ARG_OF_PERICENTER":99.2159,"MEAN_ANOMALY":260.9252,"EPHEMERIS_TYPE":0,"CLASSIFICATION_TYPE":"U","NORAD_CAT_ID":48802,"ELEMENT_SET_NO":999,"REV_AT_EPOCH":23223,"BSTAR":0.00041423695,"MEAN_MOTION_DOT":1.69e-6,"MEAN_MOTION_DDOT":0},{"OBJECT_NAME":"ONEWEB-0249","OBJECT_ID":"2021-060A","EPOCH":"2026-03-17T04:08:27.333312","MEAN_MOTION":13.16622109,"ECCENTRICITY":0.0001892,"INCLINATION":87.9012,"RA_OF_ASC_NODE":247.0747,"ARG_OF_PERICENTER":92.1437,"MEAN_ANOMALY":267.991,"EPHEMERIS_TYPE":0,"CLASSIFICATION_TYPE":"U","NORAD_CAT_ID":48967,"ELEMENT_SET_NO":999,"REV_AT_EPOCH":22750,"BSTAR":0.0081202868,"MEAN_MOTION_DOT":3.119e-5,"MEAN_MOTION_DDOT":0},{"OBJECT_NAME":"ONEWEB-0250","OBJECT_ID":"2021-060B","EPOCH":"2026-03-17T03:52:07.309344","MEAN_MOTION":13.25828286,"ECCENTRICITY":0.00024658,"INCLINATION":87.9012,"RA_OF_ASC_NODE":245.1322,"ARG_OF_PERICENTER":77.673,"MEAN_ANOMALY":282.4682,"EPHEMERIS_TYPE":0,"CLASSIFICATION_TYPE":"U","NORAD_CAT_ID":48968,"ELEMENT_SET_NO":999,"REV_AT_EPOCH":22802,"BSTAR":0.00010693605,"MEAN_MOTION_DOT":6.0e-7,"MEAN_MOTION_DDOT":0},{"OBJECT_NAME":"ONEWEB-0252","OBJECT_ID":"2021-060D","EPOCH":"2026-03-16T23:24:39.480480","MEAN_MOTION":13.16594129,"ECCENTRICITY":0.00015522,"INCLINATION":87.9008,"RA_OF_ASC_NODE":247.1066,"ARG_OF_PERICENTER":104.7585,"MEAN_ANOMALY":255.3718,"EPHEMERIS_TYPE":0,"CLASSIFICATION_TYPE":"U","NORAD_CAT_ID":48970,"ELEMENT_SET_NO":999,"REV_AT_EPOCH":22752,"BSTAR":-5.3494121e-5,"MEAN_MOTION_DOT":-8.0e-8,"MEAN_MOTION_DDOT":0},{"OBJECT_NAME":"ONEWEB-0253","OBJECT_ID":"2021-060E","EPOCH":"2026-03-17T04:37:00.600384","MEAN_MOTION":13.16595725,"ECCENTRICITY":0.00017847,"INCLINATION":87.9008,"RA_OF_ASC_NODE":247.0689,"ARG_OF_PERICENTER":97.1977,"MEAN_ANOMALY":262.9356,"EPHEMERIS_TYPE":0,"CLASSIFICATION_TYPE":"U","NORAD_CAT_ID":48971,"ELEMENT_SET_NO":999,"REV_AT_EPOCH":22748,"BSTAR":-0.00015491182,"MEAN_MOTION_DOT":-4.6e-7,"MEAN_MOTION_DDOT":0},{"OBJECT_NAME":"ONEWEB-0254","OBJECT_ID":"2021-060F","EPOCH":"2026-03-17T04:50:41.186112","MEAN_MOTION":13.16594311,"ECCENTRICITY":0.00020417,"INCLINATION":87.9013,"RA_OF_ASC_NODE":247.062,"ARG_OF_PERICENTER":98.897,"MEAN_ANOMALY":261.2392,"EPHEMERIS_TYPE":0,"CLASSIFICATION_TYPE":"U","NORAD_CAT_ID":48972,"ELEMENT_SET_NO":999,"REV_AT_EPOCH":22748,"BSTAR":-8.772191e-5,"MEAN_MOTION_DOT":-2.1e-7,"MEAN_MOTION_DDOT":0},{"OBJECT_NAME":"ONEWEB-0255","OBJECT_ID":"2021-060G","EPOCH":"2026-03-17T03:55:56.281440","MEAN_MOTION":13.16604038,"ECCENTRICITY":0.0001932,"INCLINATION":87.9013,"RA_OF_ASC_NODE":247.0788,"ARG_OF_PERICENTER":99.3651,"MEAN_ANOMALY":260.7699,"EPHEMERIS_TYPE":0,"CLASSIFICATION_TYPE":"U","NORAD_CAT_ID":48973,"ELEMENT_SET_NO":999,"REV_AT_EPOCH":22755,"BSTAR":0.0013041597,"MEAN_MOTION_DOT":5.12e-6,"MEAN_MOTION_DDOT":0},{"OBJECT_NAME":"ONEWEB-0256","OBJECT_ID":"2021-060H","EPOCH":"2026-03-17T04:33:35.126496","MEAN_MOTION":13.1659549,"ECCENTRICITY":0.00015803,"INCLINATION":87.9013,"RA_OF_ASC_NODE":247.0807,"ARG_OF_PERICENTER":98.1629,"MEAN_ANOMALY":261.9681,"EPHEMERIS_TYPE":0,"CLASSIFICATION_TYPE":"U","NORAD_CAT_ID":48974,"ELEMENT_SET_NO":999,"REV_AT_EPOCH":22752,"BSTAR":-0.00016260139,"MEAN_MOTION_DOT":-4.9e-7,"MEAN_MOTION_DDOT":0},{"OBJECT_NAME":"ONEWEB-0257","OBJECT_ID":"2021-060J","EPOCH":"2026-03-17T05:20:19.350816","MEAN_MOTION":13.16594323,"ECCENTRICITY":0.000178,"INCLINATION":87.9011,"RA_OF_ASC_NODE":247.058,"ARG_OF_PERICENTER":102.1042,"MEAN_ANOMALY":258.0289,"EPHEMERIS_TYPE":0,"CLASSIFICATION_TYPE":"U","NORAD_CAT_ID":48975,"ELEMENT_SET_NO":999,"REV_AT_EPOCH":22748,"BSTAR":0.00021243642,"MEAN_MOTION_DOT":9.4e-7,"MEAN_MOTION_DDOT":0},{"OBJECT_NAME":"ONEWEB-0258","OBJECT_ID":"2021-060K","EPOCH":"2026-03-17T05:22:37.136352","MEAN_MOTION":13.16597032,"ECCENTRICITY":0.00017544,"INCLINATION":87.901,"RA_OF_ASC_NODE":247.0692,"ARG_OF_PERICENTER":96.1834,"MEAN_ANOMALY":263.9497,"EPHEMERIS_TYPE":0,"CLASSIFICATION_TYPE":"U","NORAD_CAT_ID":48976,"ELEMENT_SET_NO":999,"REV_AT_EPOCH":22749,"BSTAR":0.00021076853,"MEAN_MOTION_DOT":9.3e-7,"MEAN_MOTION_DDOT":0},{"OBJECT_NAME":"ONEWEB-0259","OBJECT_ID":"2021-060L","EPOCH":"2026-03-17T05:13:28.644096","MEAN_MOTION":13.16594182,"ECCENTRICITY":0.00018662,"INCLINATION":87.9011,"RA_OF_ASC_NODE":247.0693,"ARG_OF_PERICENTER":98.0291,"MEAN_ANOMALY":262.1052,"EPHEMERIS_TYPE":0,"CLASSIFICATION_TYPE":"U","NORAD_CAT_ID":48977,"ELEMENT_SET_NO":999,"REV_AT_EPOCH":22752,"BSTAR":4.339756e-5,"MEAN_MOTION_DOT":2.9e-7,"MEAN_MOTION_DDOT":0},{"OBJECT_NAME":"ONEWEB-0260","OBJECT_ID":"2021-060M","EPOCH":"2026-03-17T05:00:55.497024","MEAN_MOTION":13.16594894,"ECCENTRICITY":0.00013709,"INCLINATION":87.9011,"RA_OF_ASC_NODE":247.0771,"ARG_OF_PERICENTER":108.1658,"MEAN_ANOMALY":251.9622,"EPHEMERIS_TYPE":0,"CLASSIFICATION_TYPE":"U","NORAD_CAT_ID":48978,"ELEMENT_SET_NO":999,"REV_AT_EPOCH":22750,"BSTAR":9.79158e-7,"MEAN_MOTION_DOT":1.3e-7,"MEAN_MOTION_DDOT":0},{"OBJECT_NAME":"ONEWEB-0261","OBJECT_ID":"2021-060N","EPOCH":"2026-03-17T04:17:35.216448","MEAN_MOTION":13.16593366,"ECCENTRICITY":0.00019388,"INCLINATION":87.9007,"RA_OF_ASC_NODE":247.0824,"ARG_OF_PERICENTER":106.4572,"MEAN_ANOMALY":253.6772,"EPHEMERIS_TYPE":0,"CLASSIFICATION_TYPE":"U","NORAD_CAT_ID":48979,"ELEMENT_SET_NO":999,"REV_AT_EPOCH":22755,"BSTAR":0.00022481484,"MEAN_MOTION_DOT":9.9e-7,"MEAN_MOTION_DDOT":0},{"OBJECT_NAME":"ONEWEB-0262","OBJECT_ID":"2021-060P","EPOCH":"2026-03-17T00:10:15.389184","MEAN_MOTION":13.16594514,"ECCENTRICITY":0.00019793,"INCLINATION":87.9012,"RA_OF_ASC_NODE":247.0996,"ARG_OF_PERICENTER":93.9662,"MEAN_ANOMALY":266.1695,"EPHEMERIS_TYPE":0,"CLASSIFICATION_TYPE":"U","NORAD_CAT_ID":48980,"ELEMENT_SET_NO":999,"REV_AT_EPOCH":22749,"BSTAR":-3.5229851e-5,"MEAN_MOTION_DOT":-1.0e-8,"MEAN_MOTION_DDOT":0},{"OBJECT_NAME":"ONEWEB-0263","OBJECT_ID":"2021-060Q","EPOCH":"2026-03-17T04:34:43.103424","MEAN_MOTION":13.165943,"ECCENTRICITY":0.0002029,"INCLINATION":87.9011,"RA_OF_ASC_NODE":247.0741,"ARG_OF_PERICENTER":103.7764,"MEAN_ANOMALY":256.3593,"EPHEMERIS_TYPE":0,"CLASSIFICATION_TYPE":"U","NORAD_CAT_ID":48981,"ELEMENT_SET_NO":999,"REV_AT_EPOCH":22748,"BSTAR":-0.00018359861,"MEAN_MOTION_DOT":-5.7e-7,"MEAN_MOTION_DDOT":0}]
