ONEWEB-0215             
1 48800U 21045AK  26076.30334504  .00000230  00000+0  57794-3 0  9994
2 48800  87.8939 277.5178 0002264 103.8486 256.2896 13.15549178232219
ONEWEB-0216             
1 48801U 21045AL  26076.08465361  .00000203  00000+0  50566-3 0  9996
2 48801  87.8931 277.5803 0001528  92.0841 268.0465 13.15552517232194
ONEWEB-0239             
1 48802U 21045AM  26076.08943294  .00000169  00000+0  41424-3 0  9997
2 48802  87.8930 277.5933 0002483  99.2159 260.9252 13.15548609232237
ONEWEB-0249             
1 48967U 21060A   26076.17253858  .00003119  00000+0  81203-2 0  9992
2 48967  87.9012 247.0747 0001892  92.1437 267.9910 13.16622109227501
ONEWEB-0250             
1 48968U 21060B   26076.16119571  .00000060  00000+0  10694-3 0  9994
2 48968  87.9012 245.1322 0002465  77.6730 282.4682 13.25828286228021
ONEWEB-0252             
1 48970U 21060D   26075.97545695 -.00000008  00000+0 -53494-4 0  9995
2 48970  87.9008 247.1066 0001552 104.7585 255.3718 13.16594129227521
ONEWEB-0253             
1 48971U 21060E   26076.19236806 -.00000046  00000+0 -15491-3 0  9998
2 48971  87.9008 247.0689 0001784  97.1977 262.9356 13.16595725227489
ONEWEB-0254             
1 48972U 21060F   26076.20186558 -.00000021  00000+0 -87722-4 0  9999
2 48972  87.9013 247.0620 0002041  98.8970 261.2392 13.16594311227481
ONEWEB-0255             
1 48973U 21060G   26076.16384585  .00000512  00000+0  13042-2 0  9990
2 48973  87.9013 247.0788 0001932  99.3651 260.7699 13.16604038227557
ONEWEB-0256             
1 48974U 21060H   26076.18998989 -.00000049  00000+0 -16260-3 0  9995
2 48974  87.9013 247.0807 0001580  98.1629 261.9681 13.16595490227523
ONEWEB-0257             
1 48975U 21060J   26076.22244619  .00000094  00000+0  21244-3 0  9991
2 48975  87.9011 247.0580 0001780 102.1042 258.0289 13.16594323227487
ONEWEB-0258             
1 48976U 21060K   26076.22404093  .00000093  00000+0  21077-3 0  9999
2 48976  87.9010 247.0692 0001754  96.1834 263.9497 13.16597032227490
ONEWEB-0259             
1 48977U 21060L   26076.21769264  .00000029  00000+0  43398-4 0  9993
2 48977  87.9011 247.0693 0001866  98.0291 262.1052 13.16594182227520
ONEWEB-0260             
1 48978U 21060M   26076.20897566  .00000013  00000+0  97916-6 0  9990
2 48978  87.9011 247.0771 0001370 108.1658 251.9622 13.16594894227505
ONEWEB-0261             
1 48979U 21060N   26076.17887982  .00000099  00000+0  22481-3 0  9994
2 48979  87.9007 247.0824 0001938 106.4572 253.6772 13.16593366227559
ONEWEB-0262             
1 48980U 21060P   26076.00712256 -.00000001  00000+0 -35230-4 0  9991
2 48980  87.9012 247.0996 0001979  93.9662 266.1695 13.16594514227494
ONEWEB-0263             
1 48981U 21060Q   26076.19077666 -.00000057  00000+0 -18360-3 0  9996
2 48981  87.9011 247.0741 0002029 103.7764 256.3593 13.16594300227482
